{
  "type": "FeatureCollection",
  "features": [
    {
      "type": "Feature",
      "properties": {
        "norad_id": 37867,
        "name": "COSMOS 2476 (744)",
        "group": "glo-ops",
        "lat": -28.720712351770587,
        "lon": 64.66160217302921,
        "alt_km": 19138.72222039726,
        "timestamp": "2025-12-07T22:37:43.340667+00:00",
        "meta_object_name": "COSMOS 2476 (744)",
        "meta_object_id": "2011-064A",
        "meta_epoch": "2025-12-02T19:57:36.313920",
        "meta_mean_motion": 2.13101261,
        "meta_eccentricity": 0.00239603,
        "meta_inclination": 65.1573,
        "meta_ra_of_asc_node": 79.5068,
        "meta_arg_of_pericenter": 233.4935,
        "meta_mean_anomaly": 133.1658,
        "meta_ephemeris_type": 0,
        "meta_classification_type": "U",
        "meta_norad_cat_id": 37867,
        "meta_element_set_no": 999,
        "meta_rev_at_epoch": 10958,
        "meta_bstar": 0,
        "meta_mean_motion_dot": -2.2e-07,
        "meta_mean_motion_ddot": 0,
        "tle_line1": "1 37867U 11064A   25336.83167030 -.00000022  00000+0  00000+0 0  9993",
        "tle_line2": "2 37867  65.1573  79.5068 0023960 233.4935 133.1658  2.13101261109581"
      },
      "geometry": {
        "type": "Point",
        "coordinates": [
          64.66160217302921,
          -28.720712351770587
        ]
      }
    },
    {
      "type": "Feature",
      "properties": {
        "norad_id": 37868,
        "name": "COSMOS 2477 (745)",
        "group": "glo-ops",
        "lat": 28.33048070206915,
        "lon": -115.01532877042341,
        "alt_km": 19122.72345797094,
        "timestamp": "2025-12-07T22:37:43.340678+00:00",
        "meta_object_name": "COSMOS 2477 (745)",
        "meta_object_id": "2011-064B",
        "meta_epoch": "2025-12-07T06:13:41.447136",
        "meta_mean_motion": 2.13102693,
        "meta_eccentricity": 0.00211549,
        "meta_inclination": 65.1658,
        "meta_ra_of_asc_node": 79.4345,
        "meta_arg_of_pericenter": 234.4805,
        "meta_mean_anomaly": 109.9504,
        "meta_ephemeris_type": 0,
        "meta_classification_type": "U",
        "meta_norad_cat_id": 37868,
        "meta_element_set_no": 999,
        "meta_rev_at_epoch": 10966,
        "meta_bstar": 0,
        "meta_mean_motion_dot": -1.3e-07,
        "meta_mean_motion_ddot": 0,
        "tle_line1": "1 37868U 11064B   25341.25950749 -.00000013  00000+0  00000+0 0  9993",
        "tle_line2": "2 37868  65.1658  79.4345 0021154 234.4805 109.9504  2.13102693109663"
      },
      "geometry": {
        "type": "Point",
        "coordinates": [
          -115.01532877042341,
          28.33048070206915
        ]
      }
    },
    {
      "type": "Feature",
      "properties": {
        "norad_id": 37869,
        "name": "COSMOS 2475 (743)",
        "group": "glo-ops",
        "lat": 61.50366888133502,
        "lon": -158.9202395495188,
        "alt_km": 19177.312474960923,
        "timestamp": "2025-12-07T22:37:43.340690+00:00",
        "meta_object_name": "COSMOS 2475 (743)",
        "meta_object_id": "2011-064C",
        "meta_epoch": "2025-12-07T08:11:48.953184",
        "meta_mean_motion": 2.13101364,
        "meta_eccentricity": 0.00262336,
        "meta_inclination": 65.1729,
        "meta_ra_of_asc_node": 79.4516,
        "meta_arg_of_pericenter": 248.5614,
        "meta_mean_anomaly": 114.7737,
        "meta_ephemeris_type": 0,
        "meta_classification_type": "U",
        "meta_norad_cat_id": 37869,
        "meta_element_set_no": 999,
        "meta_rev_at_epoch": 10968,
        "meta_bstar": 0,
        "meta_mean_motion_dot": -1.3e-07,
        "meta_mean_motion_ddot": 0,
        "tle_line1": "1 37869U 11064C   25341.34153881 -.00000013  00000+0  00000+0 0  9996",
        "tle_line2": "2 37869  65.1729  79.4516 0026233 248.5614 114.7737  2.13101364109688"
      },
      "geometry": {
        "type": "Point",
        "coordinates": [
          -158.9202395495188,
          61.50366888133502
        ]
      }
    },
    {
      "type": "Feature",
      "properties": {
        "norad_id": 39155,
        "name": "COSMOS 2485 (747)",
        "group": "glo-ops",
        "lat": 14.696813435235507,
        "lon": 86.95328561750311,
        "alt_km": 19181.102030480528,
        "timestamp": "2025-12-07T22:37:43.340702+00:00",
        "meta_object_name": "COSMOS 2485 (747)",
        "meta_object_id": "2013-019A",
        "meta_epoch": "2025-12-05T02:32:45.729312",
        "meta_mean_motion": 2.13102875,
        "meta_eccentricity": 0.00246247,
        "meta_inclination": 65.3094,
        "meta_ra_of_asc_node": 80.124,
        "meta_arg_of_pericenter": 229.2984,
        "meta_mean_anomaly": 130.4888,
        "meta_ephemeris_type": 0,
        "meta_classification_type": "U",
        "meta_norad_cat_id": 39155,
        "meta_element_set_no": 999,
        "meta_rev_at_epoch": 9814,
        "meta_bstar": 0,
        "meta_mean_motion_dot": -2.1e-07,
        "meta_mean_motion_ddot": 0,
        "tle_line1": "1 39155U 13019A   25339.10608483 -.00000021  00000+0  00000+0 0  9991",
        "tle_line2": "2 39155  65.3094  80.1240 0024624 229.2984 130.4888  2.13102875 98144"
      },
      "geometry": {
        "type": "Point",
        "coordinates": [
          86.95328561750311,
          14.696813435235507
        ]
      }
    },
    {
      "type": "Feature",
      "properties": {
        "norad_id": 39620,
        "name": "COSMOS 2492 (754)",
        "group": "glo-ops",
        "lat": 42.577759329340836,
        "lon": -14.7025409233202,
        "alt_km": 19129.007832949876,
        "timestamp": "2025-12-07T22:37:43.340718+00:00",
        "meta_object_name": "COSMOS 2492 (754)",
        "meta_object_id": "2014-012A",
        "meta_epoch": "2025-12-06T22:36:05.505696",
        "meta_mean_motion": 2.13103091,
        "meta_eccentricity": 0.00141965,
        "meta_inclination": 65.4111,
        "meta_ra_of_asc_node": 320.4673,
        "meta_arg_of_pericenter": 311.6327,
        "meta_mean_anomaly": 48.2397,
        "meta_ephemeris_type": 0,
        "meta_classification_type": "U",
        "meta_norad_cat_id": 39620,
        "meta_element_set_no": 999,
        "meta_rev_at_epoch": 9114,
        "meta_bstar": 0,
        "meta_mean_motion_dot": -4.9e-07,
        "meta_mean_motion_ddot": 0,
        "tle_line1": "1 39620U 14012A   25340.94173039 -.00000049  00000+0  00000+0 0  9990",
        "tle_line2": "2 39620  65.4111 320.4673 0014196 311.6327  48.2397  2.13103091 91147"
      },
      "geometry": {
        "type": "Point",
        "coordinates": [
          -14.7025409233202,
          42.577759329340836
        ]
      }
    },
    {
      "type": "Feature",
      "properties": {
        "norad_id": 40001,
        "name": "COSMOS 2500 (755)",
        "group": "glo-ops",
        "lat": -64.67853041911286,
        "lon": -115.858187978993,
        "alt_km": 19124.75250585601,
        "timestamp": "2025-12-07T22:37:43.340763+00:00",
        "meta_object_name": "COSMOS 2500 (755)",
        "meta_object_id": "2014-032A",
        "meta_epoch": "2025-12-07T02:44:10.438080",
        "meta_mean_motion": 2.13105901,
        "meta_eccentricity": 0.00081625,
        "meta_inclination": 65.3466,
        "meta_ra_of_asc_node": 320.2241,
        "meta_arg_of_pericenter": 219.2555,
        "meta_mean_anomaly": 140.6795,
        "meta_ephemeris_type": 0,
        "meta_classification_type": "U",
        "meta_norad_cat_id": 40001,
        "meta_element_set_no": 999,
        "meta_rev_at_epoch": 8936,
        "meta_bstar": 0,
        "meta_mean_motion_dot": -4.9e-07,
        "meta_mean_motion_ddot": 0,
        "tle_line1": "1 40001U 14032A   25341.11400970 -.00000049  00000+0  00000+0 0  9994",
        "tle_line2": "2 40001  65.3466 320.2241 0008162 219.2555 140.6795  2.13105901 89367"
      },
      "geometry": {
        "type": "Point",
        "coordinates": [
          -115.858187978993,
          -64.67853041911286
        ]
      }
    },
    {
      "type": "Feature",
      "properties": {
        "norad_id": 40315,
        "name": "COSMOS 2501 (702K)",
        "group": "glo-ops",
        "lat": 60.52105611922012,
        "lon": -101.56787521165576,
        "alt_km": 19155.04098864089,
        "timestamp": "2025-12-07T22:37:43.340789+00:00",
        "meta_object_name": "COSMOS 2501 (702K)",
        "meta_object_id": "2014-075A",
        "meta_epoch": "2025-12-06T21:42:23.948640",
        "meta_mean_motion": 2.13101325,
        "meta_eccentricity": 0.002014,
        "meta_inclination": 63.6139,
        "meta_ra_of_asc_node": 197.0273,
        "meta_arg_of_pericenter": 204.5326,
        "meta_mean_anomaly": 155.4549,
        "meta_ephemeris_type": 0,
        "meta_classification_type": "U",
        "meta_norad_cat_id": 40315,
        "meta_element_set_no": 999,
        "meta_rev_at_epoch": 8575,
        "meta_bstar": 0,
        "meta_mean_motion_dot": 6.6e-07,
        "meta_mean_motion_ddot": 0,
        "tle_line1": "1 40315U 14075A   25340.90444385  .00000066  00000+0  00000+0 0  9991",
        "tle_line2": "2 40315  63.6139 197.0273 0020140 204.5326 155.4549  2.13101325 85757"
      },
      "geometry": {
        "type": "Point",
        "coordinates": [
          -101.56787521165576,
          60.52105611922012
        ]
      }
    }
  ]
}